HORYU-4                 
1 41340U 16012D   20156.86816427  .00000440  00000-0  26527-4 0  9992
2 41340  31.0060  51.9322 0013747  23.4752 336.6509 15.01497621235986
E-ST@R-II               
1 41459U 16025D   20157.57188348  .00001718  00000-0  90495-4 0  9994
2 41459  98.1026 266.9422 0163990 251.4195 106.9141 15.06390148225656
AAUSAT 4                
1 41460U 16025E   20157.39562197  .00001518  00000-0  78234-4 0  9999
2 41460  98.0980 269.0414 0152813 241.0976 117.4848 15.08668391225825
BEESAT-4                
1 41619U 16040W   20156.81897897  .00001250  00000-0  54484-4 0  9990
2 41619  97.3200 216.6517 0009982 216.6473 143.4083 15.23985283207478
CANX-7                  
1 41788U 16059F   20157.52333754  .00005382  00000-0  74544-3 0  9991
2 41788  98.2541 245.0568 0022113 341.2662  18.7773 14.78274199198050
RAVAN                   
1 41849U 16067B   20157.32333764  .00001137  00000-0  10009-3 0  9997
2 41849  97.9331 266.9683 0006074 286.5000  73.5554 14.98555955194805
CELTEE 1                
1 41850U 16067C   20156.83953018  .00000539  00000-0  51918-4 0  9994
2 41850  97.9259 264.2421 0007199 292.9255  67.1206 14.97176693194618
OPTICUBE 04             
1 41851U 16067D   20157.36930085  .00000370  00000-0  37559-4 0  9991
2 41851  97.9248 264.4052 0007426 293.3309  66.7130 14.96919462194672
AEROCUBE 8D             
1 41852U 16067E   20157.38527839  .00000737  00000-0  69468-4 0  9994
2 41852  97.9263 264.2565 0007934 295.0949  64.9448 14.96908920194657
AEROCUBE 8C             
1 41853U 16067F   20156.88176190 -.00000185  00000-0 -10827-4 0  9993
2 41853  97.9252 263.6524 0008890 297.4293  62.6023 14.96868690194578
PROMETHEUS 2-1          
1 41854U 16067G   20156.85405913  .00000860  00000-0  79664-4 0  9991
2 41854  97.9271 263.9446 0008528 297.3762  62.6591 14.97191560194581
PROMETHEUS 2-3          
1 41855U 16067H   20156.85457453  .00000827  00000-0  76752-4 0  9996
2 41855  97.9275 263.9772 0008714 297.8285  62.2053 14.97201647194587
INS-1B                  
1 41954U 17008G   20156.87772976  .00001166  00000-0  49886-4 0  9999
2 41954  97.3547 221.5030 0008685 357.1237   2.9949 15.24757908183450
BGUSAT                  
1 41999U 17008BD  20156.76390412  .00002069  00000-0  79695-4 0  9991
2 41999  97.3662 225.4645 0007792   9.2751 350.8630 15.27464931183014
DIDO-2                  
1 42000U 17008BE  20157.16629385  .00000719  00000-0  32128-4 0  9994
2 42000  97.3555 222.2971 0008676  15.5105 344.6397 15.24460652182890
PEASSS                  
1 42015U 17008BV  20157.15283727  .00001057  00000-0  44405-4 0  9992
2 42015  97.3579 223.8592 0006712  22.9881 337.1656 15.25595209183478
AL-FARABI 1             
1 42016U 17008BW  20157.24631325  .00001395  00000-0  56296-4 0  9990
2 42016  97.3608 224.9755 0006532  22.2289 337.9231 15.26431342183666
NAYIF-1 (EO-88)         
1 42017U 17008BX  20156.83204475  .00001387  00000-0  55938-4 0  9990
2 42017  97.3602 224.5781 0006617  22.7130 337.4400 15.26470208183623
UCLSAT                  
1 42765U 17036A   20156.80939365  .00001141  00000-0  50631-4 0  9994
2 42765  97.3015 211.3902 0013023  73.9275 286.3395 15.23505291164652
LITUANICASAT-2          
1 42768U 17036D   20156.72534753  .00002008  00000-0  85427-4 0  9994
2 42768  97.3070 211.2610 0016249  64.7794 295.5126 15.24036420163903
AALTO-1                 
1 42775U 17036L   20156.82823287  .00000739  00000-0  35447-4 0  9992
2 42775  97.2991 209.2619 0015442  67.1937 293.0928 15.21827453163755
URSA MAIOR              
1 42776U 17036M   20156.81905169  .00000805  00000-0  38129-4 0  9996
2 42776  97.3003 209.5320 0015256  67.0146 293.2698 15.22008917163761
COMPASS 2               
1 42777U 17036N   20157.40310260  .00001623  00000-0  69942-4 0  9991
2 42777  97.3059 212.3454 0013817  64.0886 296.1774 15.23897947163961
DIAMOND RED             
1 42783U 17036U   20157.38964464  .00000969  00000-0  44295-4 0  9992
2 42783  97.3015 211.2355 0013708  73.7019 286.5725 15.22819653163913
PEGASUS                 
1 42784U 17036V   20157.42336280  .00001112  00000-0  49844-4 0  9993
2 42784  97.3020 211.6822 0013547  72.6772 287.5946 15.23196606163944
DIAMOND GREEN           
1 42785U 17036W   20156.86276731  .00000961  00000-0  43920-4 0  9995
2 42785  97.3018 210.7582 0013638  75.9522 284.3230 15.22818707163904
DIAMOND BLUE            
1 42786U 17036X   20156.79625862  .00000943  00000-0  43185-4 0  9994
2 42786  97.3017 210.6891 0013481  76.3609 283.9128 15.22818617163892
NUDTSAT                 
1 42787U 17036Y   20156.89989260  .00001475  00000-0  62739-4 0  9998
2 42787  97.3058 212.5374 0013116  65.5616 294.6994 15.24490541163780
SUCHAI                  
1 42788U 17036Z   20156.66389454  .00001292  00000-0  56532-4 0  9994
2 42788  97.3028 211.5197 0013113  73.7404 286.5274 15.23740587163938
SKCUBE                  
1 42789U 17036AA  20156.84000734  .00001225  00000-0  53981-4 0  9997
2 42789  97.3023 211.5478 0012983  73.4638 286.8025 15.23584751163875
VZLUSAT-1               
1 42790U 17036AB  20156.82312841  .00001647  00000-0  69785-4 0  9999
2 42790  97.3047 212.4599 0012468  71.8165 288.4429 15.24481459163926
ROBUSTA-1B              
1 42792U 17036AD  20156.79536361  .00001227  00000-0  53813-4 0  9991
2 42792  97.3025 211.7516 0012577  74.0552 286.2070 15.23771760163891
CICERO 6                
1 42793U 17036AE  20156.71127346  .00000839  00000-0  38404-4 0  9990
2 42793  97.3001 211.0935 0011914  76.6354 283.6210 15.23127043163926
D-SAT                   
1 42794U 17036AF  20156.76084270  .00000289  00000-0  30119-4 0  9998
2 42794  97.4942 190.0450 0127393  47.9329 313.2643 14.91275317160808
CORVUS BC2              
1 42846U 17042X   20157.10155689  .00000244  00000-0  29187-4 0  9999
2 42846  97.5247  41.2160 0008729 327.8319  32.2367 14.92103830157561
CORVUS BC1              
1 42847U 17042Y   20156.82986387  .00000315  00000-0  36132-4 0  9992
2 42847  97.5250  41.1237 0008372 328.3341  31.7374 14.92204831157526
MIRATA                  
1 43015U 17073C   20156.82658480  .00001056  00000-0  85843-4 0  9990
2 43015  97.7199  69.5223 0254887  89.7506 273.2908 14.79624960137351
MAKERSAT 0              
1 43016U 17073D   20156.71652723  .00000705  00000-0  59107-4 0  9997
2 43016  97.7236  69.5994 0257599  91.1380 271.9354 14.79198344137328
DELLINGR (RBLE)         
1 43021U 98067NJ  20157.21670712  .00013204  00000-0  10994-3 0  9997
2 43021  51.6358 342.3550 0001124  35.0931 325.0140 15.70487416144941
AEROCUBE 7B (OCSD B)    
1 43042U 17071F   20157.13034608  .00003415  00000-0  84031-4 0  9992
2 43042  51.6365 127.0263 0004720   9.1049 351.0022 15.43535950140477
AEROCUBE 7C (OCSD C)    
1 43043U 17071G   20157.39249672  .00003440  00000-0  84628-4 0  9990
2 43043  51.6365 125.7919 0004995  13.6898 346.4223 15.43512454140483
CHEFSAT                 
1 43044U 17071H   20156.45014369  .00007605  00000-0  14996-3 0  9997
2 43044  51.6370 116.0164 0004829  17.4621 342.6532 15.48229934140537
ASGARDIA 1              
1 43049U 17071N   20157.32149031  .00003234  00000-0  79995-4 0  9999
2 43049  51.6375 125.3897 0002840  32.9600 327.1562 15.43558471140473
ISARA                   
1 43050U 17071P   20156.87582130  .00005608  00000-0  11660-3 0  9992
2 43050  51.6352 116.4914 0002854  34.2348 325.8823 15.47250771140561
PROPCUBE 2 (FAUNA)      
1 43052U 17071R   20156.79344388  .00003556  00000-0  85788-4 0  9999
2 43052  51.6369 126.3814 0002777  28.6835 331.4304 15.44001511140416
CORVUS BC3              
1 43118U 18004H   20157.47200219  .00000775  00000-0  35548-4 0  9998
2 43118  97.4442 227.8422 0012061  94.5001 265.7614 15.23353001133174
MICROMAS-2A             
1 43131U 18004W   20157.11755025  .00001759  00000-0  72751-4 0  9994
2 43131  97.4489 229.1778 0010934  94.7918 265.4568 15.25255663133212
SPACEBEE-4              
1 43139U 18004AE  20156.70295259  .00002553  00000-0  10046-3 0  9995
2 43139  97.4525 229.9152 0010357  97.0531 263.1886 15.26526954133203
SPACEBEE-3              
1 43140U 18004AF  20156.85136051  .00003110  00000-0  11855-3 0  9996
2 43140  97.4542 230.7291 0010053  95.4972 264.7414 15.27413901133271
SPACEBEE-2              
1 43141U 18004AG  20156.83343341  .00003464  00000-0  13055-3 0  9993
2 43141  97.4556 230.9618 0010035  95.0895 265.1490 15.27715737133284
SPACEBEE-1              
1 43142U 18004AH  20157.26251528  .00003695  00000-0  13759-3 0  9994
2 43142  97.4559 231.6439 0009978  93.8412 266.3968 15.28069890133356
CICERO 7                
1 43143U 18004AJ  20157.31579054  .00001470  00000-0  61219-4 0  9992
2 43143  97.4469 229.5602 0009122 101.6079 258.6183 15.25298744133265
GOMX-4B                 
1 43196U 18015E   20156.87814418  .00000667  00000-0  30152-4 0  9997
2 43196  97.4364 285.5109 0019806 144.9472 215.3073 15.24253026129983
GOMX-4A                 
1 43197U 18015F   20157.49371134  .00000832  00000-0  36635-4 0  9996
2 43197  97.4353 286.2053 0020179 143.6847 281.0178 15.24492965130092
1KUNS-PF                
1 43466U 98067NP  20157.41603737  .00869605  48650-3  60666-3 0  9996
2 43466  51.6203 313.0428 0012050 303.8185  56.1684 16.15593413118603
UBAKUSAT                
1 43467U 98067NQ  20157.23481378  .00027833  00000-0  18730-3 0  9990
2 43467  51.6335 344.5971 0000140 292.1668  67.9316 15.74931733118185
CUBERRT                 
1 43546U 98067NU  20156.99619536  .00012673  00000-0  94124-4 0  9997
2 43546  51.6345 345.2901 0002882  49.7032 310.4218 15.73277005108282
TEMPEST-D               
1 43547U 98067NV  20157.32322541  .00005638  00000-0  68091-4 0  9990
2 43547  51.6374  13.1136 0004797  19.6015 340.5163 15.62447026107620
RAINCUBE                
1 43548U 98067NW  20156.82089747  .00026936  00000-0  19119-3 0  9993
2 43548  51.6341 354.5866 0003232  54.9783 305.1519 15.73708267108277
